STARLINK-2361           
1 47901U 21021AT  26068.71122616 -.00005554  00000+0 -17566-3 0  9993
2 47901  53.1601 255.2953 0001353  53.4820 306.6305 15.30175875276420
TEVEL2-6                
1 63215U 25052F   26068.64958975  .00021046  00000+0  70909-3 0  9996
2 63215  97.4016 325.0381 0004769  95.6604 264.5181 15.30760889 54861
